satname,norad_id,inclination_deg,eccentricity,mean_motion_rev_per_day,perigee_km,apogee_km,l1,l2
STARLINK-1159,45057,53.0572,0.0001436,15.06386152,546.2595142412811,548.2484865365923,1 45057U 20006P   25262.50598342  .00000899  00000+0  79247-4 0  9990,2 45057  53.0572 335.0945 0001436  92.2957 267.8196 15.06386152310664
STARLINK-1166,45060,53.055,0.0001121,15.06399796,546.4358515255344,547.9885148124004,1 45060U 20006S   25262.58338054  .00004989  00000+0  35361-3 0  9996,2 45060  53.0550 334.7485 0001121  88.1802 271.9315 15.06399796310671
STARLINK-1169,45061,53.0556,0.0001488,15.06394458,546.1980490292972,548.2590378150189,1 45061U 20006T   25262.59075512  .00003681  00000+0  26589-3 0  9995,2 45061  53.0556 334.7133 0001488  80.3691 279.7466 15.06394458310677
STARLINK-1171,45062,53.0559,0.0001209,15.06392385,546.3976194524967,548.0721743771701,1 45062U 20006U   25262.50966041  .00001554  00000+0  12321-3 0  9999,2 45062  53.0559 335.0743 0001209  88.6803 271.4325 15.06392385310668
STARLINK-1133,45064,53.0545,0.0001382,15.063979,546.2609100831087,548.1750782034896,1 45064U 20006W   25262.58890755  .00003861  00000+0  27798-3 0  9994,2 45064  53.0545 314.7185 0001382  92.6934 267.4213 15.06397900310952
STARLINK-1150,45067,53.0406,0.0002031,15.95454908,285.69343399916033,288.4008317939424,1 45067U 20006Z   25262.58339120  .00368216  65092-4  91024-3 0  9999,2 45067  53.0406 261.4736 0002031  21.0020 173.2203 15.95454908  6006
STARLINK-1167,45071,53.0545,0.0001442,15.0639389,546.2316463091793,548.2289222339641,1 45071U 20006AD  25262.41567123  .00004333  00000+0  30967-3 0  9991,2 45071  53.0545 315.5016 0001442  86.6929 273.4225 15.06393890310927
STARLINK-1168,45072,53.055,0.0001225,15.06389581,546.395131746589,548.0918499668496,1 45072U 20006AE  25262.55204768  .00001470  00000+0  11757-3 0  9995,2 45072  53.0550 314.8872 0001225  88.0626 272.0503 15.06389581310943
STARLINK-1172,45074,53.0547,0.0001323,15.06396028,546.3075063481665,548.1399567977405,1 45074U 20006AG  25262.56310879  .00001430  00000+0  11490-3 0  9999,2 45074  53.0547 314.8382 0001323  87.7295 272.3846 15.06396028310941
STARLINK-1153,45080,53.0538,0.0001362,15.06394194,546.2861176519964,548.1725874464319,1 45080U 20006AN  25262.54100039  .00002929  00000+0  21549-3 0  9999,2 45080  53.0538 314.9393 0001362  81.4210 278.6934 15.06394194310941
STARLINK-1151,45081,53.0555,0.0001266,15.06391929,546.3595422422022,548.1130467603689,1 45081U 20006AP  25262.59260112  .00001627  00000+0  12810-3 0  9999,2 45081  53.0555 314.7795 0001266  89.9787 270.1347 15.06391929310959
STARLINK-1190,45083,53.0488,0.0008364,15.72793292,345.289784619461,356.5461477669096,1 45083U 20006AR  25262.47255207  .00091488  00000+0  65926-3 0  9997,2 45083  53.0488 288.3557 0008364  26.9096 333.2354 15.72793292311310
STARLINK-1173,45084,53.0443,0.000914,15.81619357,319.7333026432625,331.98821054231394,1 45084U 20006AS  25262.58339120  .00200290  00000+0  95882-3 0  9994,2 45084  53.0443 251.8444 0009140  10.3422  70.2036 15.81619357  5937
STARLINK-1179,45085,53.0378,0.0004062,15.93875724,288.7397184815054,294.1580900701392,1 45085U 20006AT  25262.58339120  .00288771  43266-4  77823-3 0  9996,2 45085  53.0378 242.6080 0004062  29.4527 302.0494 15.93875724  6114
STARLINK-1185,45087,53.0551,0.0001349,15.06396243,546.2888415523048,548.1573036998989,1 45087U 20006AV  25262.50228286  .00000699  00000+0  65832-4 0  9993,2 45087  53.0551 295.1078 0001349  90.4047 269.7097 15.06396243311226
STARLINK-1183,45088,53.0561,0.0001173,15.06393631,546.41873239919,548.0434237503077,1 45088U 20006AW  25262.52440179  .00001544  00000+0  12254-3 0  9992,2 45088  53.0561 295.0099 0001173  69.0808 291.0306 15.06393631311221
STARLINK-1176,45090,53.0478,0.0004838,15.79200649,329.4575461915092,335.9509561861605,1 45090U 20006AY  25262.58339120  .00160823  00000+0  86634-3 0  9993,2 45090  53.0478 249.5366 0004838 353.1922 258.9103 15.79200649  5961
STARLINK-1142,45093,53.0383,0.0006157,15.49848972,412.983618701227,421.35135664734935,1 45093U 20006BB  25262.23652119  .00066653  00000+0  11730-2 0  9994,2 45093  53.0383 244.2839 0006157  51.3300 308.8257 15.49848972311913
STARLINK-1146,45094,53.0439,0.0003842,15.95215951,285.1517088500905,290.273747781328,1 45094U 20006BC  25262.58339120  .00333146  54931-4  83450-3 0  9997,2 45094  53.0439 243.6952 0003842  14.7383 279.6964 15.95215951  6116
STARLINK-1147,45095,53.04,0.0008727,15.9060207,294.7684537392606,306.4255160364837,1 45095U 20006BD  25262.58339120  .00184028  23504-4  59045-3 0  9996,2 45095  53.0400 246.4927 0008727  15.3626 270.5601 15.90602070  6117
STARLINK-1152,45096,53.0454,0.0005912,15.20646447,499.82084121511707,507.9581493431342,1 45096U 20006BE  25262.37859790  .00018454  00000+0  84257-3 0  9997,2 45096  53.0454 282.6153 0005912  37.4775 322.6632 15.20646447311383
STARLINK-1184,45098,53.0533,0.0001247,15.06395583,546.36150278689,548.0886880934931,1 45098U 20006BG  25262.47280261  .00000392  00000+0  45240-4 0  9993,2 45098  53.0533 295.2414 0001247  83.6749 276.4382 15.06395583311210
STARLINK-1193,45100,53.0526,0.0001231,15.06399452,546.360726865626,548.0657480940936,1 45100U 20006BJ  25262.40276413  .00000635  00000+0  61493-4 0  9992,2 45100  53.0526 295.5551 0001231  84.0265 276.0864 15.06399452311201
STARLINK-1143,45179,53.0551,0.0004386,15.3334902,462.826994944744,468.8305217079478,1 45179U 20012B   25262.18956735  .00075529  00000+0  22986-2 0  9998,2 45179  53.0551  69.3587 0004386 163.6811 196.4332 15.33349020309372
STARLINK-1201,45182,53.0362,0.0004831,16.09629225,244.65960060328052,251.06163950377595,1 45182U 20012E   25261.99859524  .00673811  25100-3  71552-3 0  9992,2 45182  53.0362  20.1188 0004831 352.8147   7.2816 16.09629225309881
STARLINK-1202,45183,53.0544,0.0001276,15.06406367,546.3083720830027,548.0757160550484,1 45183U 20012F   25262.53177700  .00001159  00000+0  96640-4 0  9997,2 45183  53.0544  94.9772 0001276  90.8640 269.2495 15.06406367309046
STARLINK-1216,45185,53.0546,0.0001341,15.06397375,546.2909128764004,548.1482935173781,1 45185U 20012H   25262.52441253  .00001703  00000+0  13319-3 0  9991,2 45185  53.0546  95.0081 0001341  96.8998 263.2143 15.06397375308984
STARLINK-1224,45186,53.0332,0.0005573,16.15234148,228.83931369356378,236.2075558141405,1 45186U 20012J   25262.10255566  .00984413  64057-3  71607-3 0  9994,2 45186  53.0332  40.4750 0005573 336.6963  23.3819 16.15234148309708
STARLINK-1225,45187,53.0549,0.0001768,15.06404079,545.9746570041962,548.4234558337457,1 45187U 20012K   25262.54282506  .00001587  00000+0  12540-3 0  9994,2 45187  53.0549  94.9246 0001768 116.1611 243.9560 15.06404079309036
STARLINK-1230,45189,53.0548,0.0001373,15.06394477,546.2776325084196,548.1793378706534,1 45189U 20012M   25262.54652052  .00000647  00000+0  62353-4 0  9997,2 45189  53.0548  94.9097 0001373 102.7850 257.3293 15.06394477306263
STARLINK-1234,45190,53.0559,0.0001387,15.06400955,546.2480855633494,548.169176441389,1 45190U 20012N   25262.56494300  .00001080  00000+0  91377-4 0  9991,2 45190  53.0559  54.8267 0001387  84.4522 275.6625 15.06400955309509
STARLINK-1240,45194,53.0387,0.0002549,16.01946458,267.3344191506603,270.72314426617504,1 45194U 20012S   25262.58047780  .00506796  12612-3  86723-3 0  9991,2 45194  53.0387  39.5294 0002549   7.8621 352.2448 16.01946458309719
STARLINK-1244,45196,53.0353,0.0003943,16.06977809,252.53144313074426,257.7624508513409,1 45196U 20012U   25262.07326563  .00534749  15058-3  67342-3 0  9998,2 45196  53.0353  41.4502 0003943 335.6241  24.4604 16.06977809309796
STARLINK-1269,45197,53.0551,0.0001401,15.06401546,546.2365790058584,548.1770603441319,1 45197U 20012V   25261.82776266  .00001267  00000+0  10396-3 0  9998,2 45197  53.0551  98.1379 0001401  91.1274 268.9876 15.06401546308902
STARLINK-1154,45198,53.0553,0.0001339,15.06386057,546.3269816607908,548.1816014486694,1 45198U 20012W   25262.48200982  .00000099  00000+0  25538-4 0  9996,2 45198  53.0553  75.1992 0001339 106.0440 254.0697 15.06386057309257
STARLINK-1199,45201,53.0543,0.0001282,15.06402846,546.3150068050154,548.0906639388058,1 45201U 20012Z   25262.62575410  .00001103  00000+0  92953-4 0  9990,2 45201  53.0543  74.5552 0001282  83.9223 276.1912 15.06402846309334
STARLINK-1206,45204,53.0386,0.0005815,16.0900761,245.71306750559506,253.42108734764315,1 45204U 20012AC  25260.96032920  .01301378  10819-2  14550-2 0  9997,2 45204  53.0386  28.6592 0005815 286.1920  73.8473 16.09007610309847
STARLINK-1208,45205,53.039,0.0001197,15.96823221,282.4416380818875,284.0363714974337,1 45205U 20012AD  25262.58339120  .00370365  66772-4  84975-3 0  9991,2 45205  53.0390  21.6239 0001197  18.8421 304.2475 15.96823221  6069
STARLINK-1209,45206,53.0555,0.000136,15.06404658,546.2554364136031,548.1391273382733,1 45206U 20012AE  25262.56862731  .00000697  00000+0  65648-4 0  9991,2 45206  53.0555  54.8135 0001360  84.9423 275.1721 15.06404658308654
STARLINK-1210,45207,53.0295,0.0010904,15.46287456,420.1767893177703,435.01873568783685,1 45207U 20012AF  25262.56352478  .00051484  00000+0  10280-2 0  9994,2 45207  53.0295  28.1458 0010904 246.3733 113.6129 15.46287456309984
STARLINK-1231,45212,53.0519,0.0003378,15.08751103,537.6781730832308,542.3520766587944,1 45212U 20012AL  25262.62476593  .00021462  00000+0  13655-2 0  9994,2 45212  53.0519  74.1209 0003378 160.3125 199.7996 15.08751103309295
STARLINK-1271,45217,53.0549,0.0001234,15.06395527,546.3706773692138,548.0798567767279,1 45217U 20012AR  25262.47833751  .00002093  00000+0  15935-3 0  9998,2 45217  53.0549  75.2150 0001234  96.5526 263.5604 15.06395527309315
STARLINK-1191,45222,53.0547,0.0001322,15.06398203,546.3015336824783,548.1325972973937,1 45222U 20012AW  25262.62023890  .00001352  00000+0  10965-3 0  9991,2 45222  53.0547  54.5778 0001322  87.7517 272.3623 15.06398203309611
